0 ATLAS CENTAUR R/B
1 12497U 81050B   13282.11357357  .00017926  00000-0  17037-2 0  9709
2 12497 023.9623 324.7489 3691595 332.5737 012.0075 07.95841815791757
0 ATLAS CENTAUR R/B
1 12497U 81050B   13283.24378408  .00017291  00000-0  16405-2 0  9718
2 12497 023.9606 322.4113 3691508 336.6362 010.1730 07.95876692791848
0 ATLAS CENTAUR R/B
1 12497U 81050B   13286.13192614  .00015997  00000-0  15196-2 0  9731
2 12497 023.9563 316.4339 3690980 347.0255 005.5984 07.95960073792075
0 ATLAS CENTAUR R/B
1 12497U 81050B   13287.26199766  .00016312  00000-0  15562-2 0  9741
2 12497 023.9542 314.0932 3690579 351.0927 003.8393 07.95990072792167
0 ATLAS CENTAUR R/B
1 12497U 81050B   13288.39202660  .00019058  00000-0  18280-2 0  9755
2 12497 023.9526 311.7522 3690135 355.1583 002.0910 07.96025578792256
0 ATLAS CENTAUR R/B
1 12497U 81050B   13290.14974698  .00017710  00000-0  17070-2 0  9768
2 12497 023.9507 308.1108 3689530 001.4803 359.3813 07.96079984792393
0 ATLAS CENTAUR R/B
1 12497U 81050B   13291.15410710  .00016458  00000-0  15893-2 0  9770
2 12497 023.9501 306.0304 3689226 005.0909 357.8327 07.96111870792474
0 ATLAS CENTAUR R/B
1 12497U 81050B   13292.15842624  .00015733  00000-0  15217-2 0  9780
2 12497 023.9493 303.9489 3688962 008.7025 356.2789 07.96141507792553
0 ATLAS CENTAUR R/B
1 12497U 81050B   13293.16270575  .00015748  00000-0  15248-2 0  9793
2 12497 023.9487 301.8677 3688754 012.3138 354.7171 07.96169804792634
0 ATLAS CENTAUR R/B
1 12497U 81050B   13294.29247254  .00016410  00000-0  15892-2 0  9800
2 12497 023.9480 299.5272 3688607 016.3756 352.9466 07.96200661792722
0 ATLAS CENTAUR R/B
1 12497U 81050B   13295.29666635  .00016852  00000-0  16318-2 0  9814
2 12497 023.9474 297.4451 3688475 019.9887 351.3556 07.96230639792808
